[{"OBJECT_NAME":"STARLINK-35621","OBJECT_ID":"2025-240L","EPOCH":"2026-03-09T10:04:01.217856","MEAN_MOTION":15.30193577,"ECCENTRICITY":0.0001578,"INCLINATION":53.1595,"RA_OF_ASC_NODE":64.3121,"ARG_OF_PERICENTER":94.7303,"MEAN_ANOMALY":265.3878,"EPHEMERIS_TYPE":0,"CLASSIFICATION_TYPE":"U","NORAD_CAT_ID":66156,"ELEMENT_SET_NO":999,"REV_AT_EPOCH":2194,"BSTAR":0.0008928967,"MEAN_MOTION_DOT":0.00026174,"MEAN_MOTION_DDOT":0},{"OBJECT_NAME":"OBJECT N","OBJECT_ID":"2019-093N","EPOCH":"2026-03-09T21:41:56.087232","MEAN_MOTION":15.29897693,"ECCENTRICITY":0.0006278,"INCLINATION":98.0505,"RA_OF_ASC_NODE":226.9456,"ARG_OF_PERICENTER":33.3806,"MEAN_ANOMALY":326.7828,"EPHEMERIS_TYPE":0,"CLASSIFICATION_TYPE":"U","NORAD_CAT_ID":44891,"ELEMENT_SET_NO":999,"REV_AT_EPOCH":33957,"BSTAR":0.0010567776,"MEAN_MOTION_DOT":0.00030617,"MEAN_MOTION_DDOT":0}]
